CCSDS_OMM_VERS = 2.0
CREATION_DATE  = 
ORIGINATOR     = 

OBJECT_NAME    = TRANSPORTER-15DF
OBJECT_ID      = 2025-276DF
CENTER_NAME    = EARTH
REF_FRAME      = TEME
TIME_SYSTEM    = UTC
MEAN_ELEMENT_THEORY = SGP/SGP4

EPOCH          = 2025-12-27T22:54:02.130912
MEAN_MOTION    = 15.18378228
ECCENTRICITY   = .00020242
INCLINATION    = 97.4365
RA_OF_ASC_NODE = 73.4771
ARG_OF_PERICENTER = 85.2436
MEAN_ANOMALY   = 274.9029

EPHEMERIS_TYPE = 0
CLASSIFICATION_TYPE = U
NORAD_CAT_ID   = 66767
ELEMENT_SET_NO = 999
REV_AT_EPOCH   = 443
BSTAR          = .28280303E-3
MEAN_MOTION_DOT = .5746E-4
MEAN_MOTION_DDOT = 0

CCSDS_OMM_VERS = 2.0
CREATION_DATE  = 
ORIGINATOR     = 

OBJECT_NAME    = TRANSPORTER-15DG
OBJECT_ID      = 2025-276DG
CENTER_NAME    = EARTH
REF_FRAME      = TEME
TIME_SYSTEM    = UTC
MEAN_ELEMENT_THEORY = SGP/SGP4

EPOCH          = 2025-12-27T21:15:06.186528
MEAN_MOTION    = 15.18610279
ECCENTRICITY   = .00020491
INCLINATION    = 97.4352
RA_OF_ASC_NODE = 73.4113
ARG_OF_PERICENTER = 70.5820
MEAN_ANOMALY   = 289.5636

EPHEMERIS_TYPE = 0
CLASSIFICATION_TYPE = U
NORAD_CAT_ID   = 66768
ELEMENT_SET_NO = 999
REV_AT_EPOCH   = 442
BSTAR          = .67927677E-3
MEAN_MOTION_DOT = .14004E-3
MEAN_MOTION_DDOT = 0

CCSDS_OMM_VERS = 2.0
CREATION_DATE  = 
ORIGINATOR     = 

OBJECT_NAME    = TRANSPORTER-15DH
OBJECT_ID      = 2025-276DH
CENTER_NAME    = EARTH
REF_FRAME      = TEME
TIME_SYSTEM    = UTC
MEAN_ELEMENT_THEORY = SGP/SGP4

EPOCH          = 2025-12-27T22:51:52.434144
MEAN_MOTION    = 15.18470623
ECCENTRICITY   = .00027502
INCLINATION    = 97.4412
RA_OF_ASC_NODE = 73.4963
ARG_OF_PERICENTER = 99.0948
MEAN_ANOMALY   = 261.0597

EPHEMERIS_TYPE = 0
CLASSIFICATION_TYPE = U
NORAD_CAT_ID   = 66769
ELEMENT_SET_NO = 999
REV_AT_EPOCH   = 443
BSTAR          = .38805269E-3
MEAN_MOTION_DOT = .7933E-4
MEAN_MOTION_DDOT = 0

CCSDS_OMM_VERS = 2.0
CREATION_DATE  = 
ORIGINATOR     = 

OBJECT_NAME    = TRANSPORTER-15DJ
OBJECT_ID      = 2025-276DJ
CENTER_NAME    = EARTH
REF_FRAME      = TEME
TIME_SYSTEM    = UTC
MEAN_ELEMENT_THEORY = SGP/SGP4

EPOCH          = 2025-12-27T21:16:39.058752
MEAN_MOTION    = 15.18429070
ECCENTRICITY   = .00034355
INCLINATION    = 97.4444
RA_OF_ASC_NODE = 73.4433
ARG_OF_PERICENTER = 109.2184
MEAN_ANOMALY   = 250.9423

EPHEMERIS_TYPE = 0
CLASSIFICATION_TYPE = U
NORAD_CAT_ID   = 66770
ELEMENT_SET_NO = 999
REV_AT_EPOCH   = 442
BSTAR          = .53695522E-3
MEAN_MOTION_DOT = .10995E-3
MEAN_MOTION_DDOT = 0

CCSDS_OMM_VERS = 2.0
CREATION_DATE  = 
ORIGINATOR     = 

OBJECT_NAME    = TRANSPORTER-15DK
OBJECT_ID      = 2025-276DK
CENTER_NAME    = EARTH
REF_FRAME      = TEME
TIME_SYSTEM    = UTC
MEAN_ELEMENT_THEORY = SGP/SGP4

EPOCH          = 2025-12-27T21:15:35.296416
MEAN_MOTION    = 15.18540323
ECCENTRICITY   = .00030901
INCLINATION    = 97.4437
RA_OF_ASC_NODE = 73.4418
ARG_OF_PERICENTER = 104.7430
MEAN_ANOMALY   = 255.4147

EPHEMERIS_TYPE = 0
CLASSIFICATION_TYPE = U
NORAD_CAT_ID   = 66771
ELEMENT_SET_NO = 999
REV_AT_EPOCH   = 442
BSTAR          = .63040509E-3
MEAN_MOTION_DOT = .12965E-3
MEAN_MOTION_DDOT = 0

CCSDS_OMM_VERS = 2.0
CREATION_DATE  = 
ORIGINATOR     = 

OBJECT_NAME    = TRANSPORTER-15DL
OBJECT_ID      = 2025-276DL
CENTER_NAME    = EARTH
REF_FRAME      = TEME
TIME_SYSTEM    = UTC
MEAN_ELEMENT_THEORY = SGP/SGP4

EPOCH          = 2025-12-27T21:11:10.102848
MEAN_MOTION    = 15.18777482
ECCENTRICITY   = .00029395
INCLINATION    = 97.4429
RA_OF_ASC_NODE = 73.4418
ARG_OF_PERICENTER = 92.3912
MEAN_ANOMALY   = 267.7659

EPHEMERIS_TYPE = 0
CLASSIFICATION_TYPE = U
NORAD_CAT_ID   = 66772
ELEMENT_SET_NO = 999
REV_AT_EPOCH   = 442
BSTAR          = .7495695E-3
MEAN_MOTION_DOT = .15539E-3
MEAN_MOTION_DDOT = 0

CCSDS_OMM_VERS = 2.0
CREATION_DATE  = 
ORIGINATOR     = 

OBJECT_NAME    = TRANSPORTER-15DM
OBJECT_ID      = 2025-276DM
CENTER_NAME    = EARTH
REF_FRAME      = TEME
TIME_SYSTEM    = UTC
MEAN_ELEMENT_THEORY = SGP/SGP4

EPOCH          = 2025-12-27T21:13:40.878624
MEAN_MOTION    = 15.18592531
ECCENTRICITY   = .00031765
INCLINATION    = 97.4424
RA_OF_ASC_NODE = 73.4387
ARG_OF_PERICENTER = 91.7695
MEAN_ANOMALY   = 268.3903

EPHEMERIS_TYPE = 0
CLASSIFICATION_TYPE = U
NORAD_CAT_ID   = 66773
ELEMENT_SET_NO = 999
REV_AT_EPOCH   = 442
BSTAR          = .62806244E-3
MEAN_MOTION_DOT = .12936E-3
MEAN_MOTION_DDOT = 0

CCSDS_OMM_VERS = 2.0
CREATION_DATE  = 
ORIGINATOR     = 

OBJECT_NAME    = TRANSPORTER-15DN
OBJECT_ID      = 2025-276DN
CENTER_NAME    = EARTH
REF_FRAME      = TEME
TIME_SYSTEM    = UTC
MEAN_ELEMENT_THEORY = SGP/SGP4

EPOCH          = 2025-12-27T21:12:40.140288
MEAN_MOTION    = 15.18658194
ECCENTRICITY   = .00029915
INCLINATION    = 97.4411
RA_OF_ASC_NODE = 73.4346
ARG_OF_PERICENTER = 90.4375
MEAN_ANOMALY   = 269.7202

EPHEMERIS_TYPE = 0
CLASSIFICATION_TYPE = U
NORAD_CAT_ID   = 66774
ELEMENT_SET_NO = 999
REV_AT_EPOCH   = 442
BSTAR          = .49431779E-3
MEAN_MOTION_DOT = .10182E-3
MEAN_MOTION_DDOT = 0

CCSDS_OMM_VERS = 2.0
CREATION_DATE  = 
ORIGINATOR     = 

OBJECT_NAME    = PHI 1
OBJECT_ID      = 2025-276DP
CENTER_NAME    = EARTH
REF_FRAME      = TEME
TIME_SYSTEM    = UTC
MEAN_ELEMENT_THEORY = SGP/SGP4

EPOCH          = 2025-12-27T21:11:15.197856
MEAN_MOTION    = 15.18727105
ECCENTRICITY   = .00026391
INCLINATION    = 97.4335
RA_OF_ASC_NODE = 73.4094
ARG_OF_PERICENTER = 59.3466
MEAN_ANOMALY   = 300.8028

EPHEMERIS_TYPE = 0
CLASSIFICATION_TYPE = U
NORAD_CAT_ID   = 66775
ELEMENT_SET_NO = 999
REV_AT_EPOCH   = 442
BSTAR          = .73914809E-3
MEAN_MOTION_DOT = .15299E-3
MEAN_MOTION_DDOT = 0

CCSDS_OMM_VERS = 2.0
CREATION_DATE  = 
ORIGINATOR     = 

OBJECT_NAME    = TRANSPORTER-15DQ
OBJECT_ID      = 2025-276DQ
CENTER_NAME    = EARTH
REF_FRAME      = TEME
TIME_SYSTEM    = UTC
MEAN_ELEMENT_THEORY = SGP/SGP4

EPOCH          = 2025-12-27T21:10:29.632224
MEAN_MOTION    = 15.18780289
ECCENTRICITY   = .00027797
INCLINATION    = 97.4375
RA_OF_ASC_NODE = 73.4239
ARG_OF_PERICENTER = 75.2190
MEAN_ANOMALY   = 284.9352

EPHEMERIS_TYPE = 0
CLASSIFICATION_TYPE = U
NORAD_CAT_ID   = 66776
ELEMENT_SET_NO = 999
REV_AT_EPOCH   = 442
BSTAR          = .54090049E-3
MEAN_MOTION_DOT = .11189E-3
MEAN_MOTION_DDOT = 0

CCSDS_OMM_VERS = 2.0
CREATION_DATE  = 
ORIGINATOR     = 

OBJECT_NAME    = TRANSPORTER-15DR
OBJECT_ID      = 2025-276DR
CENTER_NAME    = EARTH
REF_FRAME      = TEME
TIME_SYSTEM    = UTC
MEAN_ELEMENT_THEORY = SGP/SGP4

EPOCH          = 2025-12-27T22:40:52.557600
MEAN_MOTION    = 15.19046104
ECCENTRICITY   = .00035487
INCLINATION    = 97.4464
RA_OF_ASC_NODE = 73.5245
ARG_OF_PERICENTER = 100.8146
MEAN_ANOMALY   = 259.3488

EPHEMERIS_TYPE = 0
CLASSIFICATION_TYPE = U
NORAD_CAT_ID   = 66777
ELEMENT_SET_NO = 999
REV_AT_EPOCH   = 443
BSTAR          = .70961294E-3
MEAN_MOTION_DOT = .14821E-3
MEAN_MOTION_DDOT = 0

CCSDS_OMM_VERS = 2.0
CREATION_DATE  = 
ORIGINATOR     = 

OBJECT_NAME    = TRANSPORTER-15DS
OBJECT_ID      = 2025-276DS
CENTER_NAME    = EARTH
REF_FRAME      = TEME
TIME_SYSTEM    = UTC
MEAN_ELEMENT_THEORY = SGP/SGP4

EPOCH          = 2025-12-18T19:26:21.991200
MEAN_MOTION    = 15.16535337
ECCENTRICITY   = .00032319
INCLINATION    = 97.4427
RA_OF_ASC_NODE = 64.4586
ARG_OF_PERICENTER = 41.3734
MEAN_ANOMALY   = 318.7744

EPHEMERIS_TYPE = 0
CLASSIFICATION_TYPE = U
NORAD_CAT_ID   = 66778
ELEMENT_SET_NO = 999
REV_AT_EPOCH   = 304
BSTAR          = .25483693E-3
MEAN_MOTION_DOT = .4904E-4
MEAN_MOTION_DDOT = 0

CCSDS_OMM_VERS = 2.0
CREATION_DATE  = 
ORIGINATOR     = 

OBJECT_NAME    = STARLINK-35867
OBJECT_ID      = 2025-278A
CENTER_NAME    = EARTH
REF_FRAME      = TEME
TIME_SYSTEM    = UTC
MEAN_ELEMENT_THEORY = SGP/SGP4

EPOCH          = 2025-12-27T22:00:03.999744
MEAN_MOTION    = 15.40647177
ECCENTRICITY   = .0001514
INCLINATION    = 42.9999
RA_OF_ASC_NODE = 161.7308
ARG_OF_PERICENTER = 294.0254
MEAN_ANOMALY   = 259.4348

EPHEMERIS_TYPE = 0
CLASSIFICATION_TYPE = U
NORAD_CAT_ID   = 66791
ELEMENT_SET_NO = 999
REV_AT_EPOCH   = 539
BSTAR          = .28428048E-2
MEAN_MOTION_DOT = .120123E-2
MEAN_MOTION_DDOT = 0

CCSDS_OMM_VERS = 2.0
CREATION_DATE  = 
ORIGINATOR     = 

OBJECT_NAME    = STARLINK-35990
OBJECT_ID      = 2025-278B
CENTER_NAME    = EARTH
REF_FRAME      = TEME
TIME_SYSTEM    = UTC
MEAN_ELEMENT_THEORY = SGP/SGP4

EPOCH          = 2025-12-27T22:15:18.936000
MEAN_MOTION    = 15.50608121
ECCENTRICITY   = .00019923
INCLINATION    = 43.0010
RA_OF_ASC_NODE = 161.4067
ARG_OF_PERICENTER = 278.8469
MEAN_ANOMALY   = 81.2166

EPHEMERIS_TYPE = 0
CLASSIFICATION_TYPE = U
NORAD_CAT_ID   = 66792
ELEMENT_SET_NO = 999
REV_AT_EPOCH   = 421
BSTAR          = .1531671E-2
MEAN_MOTION_DOT = .90657E-3
MEAN_MOTION_DDOT = 0

CCSDS_OMM_VERS = 2.0
CREATION_DATE  = 
ORIGINATOR     = 

OBJECT_NAME    = STARLINK-36051
OBJECT_ID      = 2025-278C
CENTER_NAME    = EARTH
REF_FRAME      = TEME
TIME_SYSTEM    = UTC
MEAN_ELEMENT_THEORY = SGP/SGP4

EPOCH          = 2025-12-27T17:36:03.153312
MEAN_MOTION    = 15.50622276
ECCENTRICITY   = .00020182
INCLINATION    = 42.9999
RA_OF_ASC_NODE = 162.5303
ARG_OF_PERICENTER = 262.9114
MEAN_ANOMALY   = 97.1517

EPHEMERIS_TYPE = 0
CLASSIFICATION_TYPE = U
NORAD_CAT_ID   = 66793
ELEMENT_SET_NO = 999
REV_AT_EPOCH   = 418
BSTAR          = .15410074E-2
MEAN_MOTION_DOT = .91265E-3
MEAN_MOTION_DDOT = 0

